ONEWEB-0532             
1 55140U 23004A   25311.29971781  .00000297  00000+0  73307-3 0  9990
2 55140  87.9138  49.9801 0001419  88.6278 271.5016 13.17647486138368
ONEWEB-0533             
1 55141U 23004B   25311.22609515  .00000504  00000+0  13658-2 0  9990
2 55141  87.8975  34.7577 0001601 107.0760 253.0544 13.12444456138946
ONEWEB-0541             
1 55142U 23004C   25311.23500132  .00000631  00000+0  17444-2 0  9995
2 55142  87.8858  65.2458 0001636  95.8627 264.2688 13.11418237136856
ONEWEB-0543             
1 55143U 23004D   25311.22505779  .00000075  00000+0  15733-3 0  9999
2 55143  87.9207  19.5862 0001955 107.1042 253.0305 13.18686708140448
ONEWEB-0544             
1 55144U 23004E   25311.14258273  .00000158  00000+0  36766-3 0  9996
2 55144  87.9208  19.5925 0001954 101.9278 258.2073 13.18687585140434
ONEWEB-0560             
1 55145U 23004F   25311.13598747  .00000090  00000+0  19605-3 0  9997
2 55145  87.9216  19.5779 0002112 100.7237 259.4133 13.18687177140448
ONEWEB-0565             
1 55146U 23004G   25311.12938694 -.00000207  00000+0 -55707-3 0  9991
2 55146  87.9242  19.6331 0002159  82.2148 277.9229 13.18689262140436
ONEWEB-0567             
1 55147U 23004H   25311.19866451  .00000095  00000+0  20846-3 0  9999
2 55147  87.9215  19.5785 0002162  92.6686 267.4694 13.18687943140440
ONEWEB-0569             
1 55148U 23004J   25311.17895906 -.00000490  00000+0 -13762-2 0  9994
2 55148  87.9033   4.3315 0002813  95.2535 264.8916 13.13469752141030
ONEWEB-0570             
1 55149U 23004K   25311.26464657  .00000005  00000+0 -19878-4 0  9997
2 55149  87.9214  19.5655 0001642  82.9060 277.2259 13.18687300140440
ONEWEB-0571             
1 55150U 23004L   25311.25804561  .00000035  00000+0  55078-4 0  9994
2 55150  87.9207  19.5685 0002860  82.1118 278.0338 13.18684561140450
ONEWEB-0572             
1 55151U 23004M   25311.25417097  .00000048  00000+0  91196-4 0  9994
2 55151  87.9137  49.9982 0001791  94.8695 265.2641 13.17650046138252
ONEWEB-0573             
1 55152U 23004N   25311.25145281 -.00000006  00000+0 -47777-4 0  9990
2 55152  87.9205  19.5766 0002188  77.3859 282.7518 13.18686714140444
ONEWEB-0588             
1 55153U 23004P   25311.24485380  .00000045  00000+0  80366-4 0  9999
2 55153  87.9215  19.5685 0001771  84.5152 275.6182 13.18686795140446
ONEWEB-0598             
1 55154U 23004Q   25311.28924865 -.00000039  00000+0 -14726-3 0  9991
2 55154  87.8849  65.2653 0002225  94.7726 265.3656 13.11418812136811
ONEWEB-0599             
1 55155U 23004R   25311.29128410  .00000041  00000+0  72512-4 0  9994
2 55155  87.9138  49.9937 0001878 102.9592 257.1750 13.17651132138269
ONEWEB-0614             
1 55156U 23004S   25311.28415619 -.00000282  00000+0 -83182-3 0  9997
2 55156  87.8851  65.2757 0001284  94.5791 265.5484 13.11420369136759
