[{"OBJECT_NAME":"ONEWEB-0532","OBJECT_ID":"2023-004A","EPOCH":"2025-11-07T07:11:35.618784","MEAN_MOTION":13.17647486,"ECCENTRICITY":0.00014191,"INCLINATION":87.9138,"RA_OF_ASC_NODE":49.9801,"ARG_OF_PERICENTER":88.6278,"MEAN_ANOMALY":271.5016,"EPHEMERIS_TYPE":0,"CLASSIFICATION_TYPE":"U","NORAD_CAT_ID":55140,"ELEMENT_SET_NO":999,"REV_AT_EPOCH":13836,"BSTAR":0.00073306871,"MEAN_MOTION_DOT":2.97e-6,"MEAN_MOTION_DDOT":0},{"OBJECT_NAME":"ONEWEB-0533","OBJECT_ID":"2023-004B","EPOCH":"2025-11-07T05:25:34.620960","MEAN_MOTION":13.12444456,"ECCENTRICITY":0.0001601,"INCLINATION":87.8975,"RA_OF_ASC_NODE":34.7577,"ARG_OF_PERICENTER":107.076,"MEAN_ANOMALY":253.0544,"EPHEMERIS_TYPE":0,"CLASSIFICATION_TYPE":"U","NORAD_CAT_ID":55141,"ELEMENT_SET_NO":999,"REV_AT_EPOCH":13894,"BSTAR":0.0013658068,"MEAN_MOTION_DOT":5.04e-6,"MEAN_MOTION_DDOT":0},{"OBJECT_NAME":"ONEWEB-0541","OBJECT_ID":"2023-004C","EPOCH":"2025-11-07T05:38:24.114048","MEAN_MOTION":13.11418237,"ECCENTRICITY":0.00016363,"INCLINATION":87.8858,"RA_OF_ASC_NODE":65.2458,"ARG_OF_PERICENTER":95.8627,"MEAN_ANOMALY":264.2688,"EPHEMERIS_TYPE":0,"CLASSIFICATION_TYPE":"U","NORAD_CAT_ID":55142,"ELEMENT_SET_NO":999,"REV_AT_EPOCH":13685,"BSTAR":0.0017444376,"MEAN_MOTION_DOT":6.31e-6,"MEAN_MOTION_DDOT":0},{"OBJECT_NAME":"ONEWEB-0543","OBJECT_ID":"2023-004D","EPOCH":"2025-11-07T05:24:04.993056","MEAN_MOTION":13.18686708,"ECCENTRICITY":0.00019552,"INCLINATION":87.9207,"RA_OF_ASC_NODE":19.5862,"ARG_OF_PERICENTER":107.1042,"MEAN_ANOMALY":253.0305,"EPHEMERIS_TYPE":0,"CLASSIFICATION_TYPE":"U","NORAD_CAT_ID":55143,"ELEMENT_SET_NO":999,"REV_AT_EPOCH":14044,"BSTAR":0.00015732616,"MEAN_MOTION_DOT":7.5e-7,"MEAN_MOTION_DDOT":0},{"OBJECT_NAME":"ONEWEB-0544","OBJECT_ID":"2023-004E","EPOCH":"2025-11-07T03:25:19.147872","MEAN_MOTION":13.18687585,"ECCENTRICITY":0.00019541,"INCLINATION":87.9208,"RA_OF_ASC_NODE":19.5925,"ARG_OF_PERICENTER":101.9278,"MEAN_ANOMALY":258.2073,"EPHEMERIS_TYPE":0,"CLASSIFICATION_TYPE":"U","NORAD_CAT_ID":55144,"ELEMENT_SET_NO":999,"REV_AT_EPOCH":14043,"BSTAR":0.00036766112,"MEAN_MOTION_DOT":1.58e-6,"MEAN_MOTION_DDOT":0},{"OBJECT_NAME":"ONEWEB-0560","OBJECT_ID":"2023-004F","EPOCH":"2025-11-07T03:15:49.317408","MEAN_MOTION":13.18687177,"ECCENTRICITY":0.0002112,"INCLINATION":87.9216,"RA_OF_ASC_NODE":19.5779,"ARG_OF_PERICENTER":100.7237,"MEAN_ANOMALY":259.4133,"EPHEMERIS_TYPE":0,"CLASSIFICATION_TYPE":"U","NORAD_CAT_ID":55145,"ELEMENT_SET_NO":999,"REV_AT_EPOCH":14044,"BSTAR":0.00019604639,"MEAN_MOTION_DOT":9.0e-7,"MEAN_MOTION_DDOT":0},{"OBJECT_NAME":"ONEWEB-0565","OBJECT_ID":"2023-004G","EPOCH":"2025-11-07T03:06:19.031616","MEAN_MOTION":13.18689262,"ECCENTRICITY":0.00021594,"INCLINATION":87.9242,"RA_OF_ASC_NODE":19.6331,"ARG_OF_PERICENTER":82.2148,"MEAN_ANOMALY":277.9229,"EPHEMERIS_TYPE":0,"CLASSIFICATION_TYPE":"U","NORAD_CAT_ID":55146,"ELEMENT_SET_NO":999,"REV_AT_EPOCH":14043,"BSTAR":-0.000557069,"MEAN_MOTION_DOT":-2.07e-6,"MEAN_MOTION_DDOT":0},{"OBJECT_NAME":"ONEWEB-0567","OBJECT_ID":"2023-004H","EPOCH":"2025-11-07T04:46:04.613664","MEAN_MOTION":13.18687943,"ECCENTRICITY":0.00021627,"INCLINATION":87.9215,"RA_OF_ASC_NODE":19.5785,"ARG_OF_PERICENTER":92.6686,"MEAN_ANOMALY":267.4694,"EPHEMERIS_TYPE":0,"CLASSIFICATION_TYPE":"U","NORAD_CAT_ID":55147,"ELEMENT_SET_NO":999,"REV_AT_EPOCH":14044,"BSTAR":0.00020846082,"MEAN_MOTION_DOT":9.5e-7,"MEAN_MOTION_DDOT":0},{"OBJECT_NAME":"ONEWEB-0569","OBJECT_ID":"2023-004J","EPOCH":"2025-11-07T04:17:42.062784","MEAN_MOTION":13.13469752,"ECCENTRICITY":0.00028132,"INCLINATION":87.9033,"RA_OF_ASC_NODE":4.3315,"ARG_OF_PERICENTER":95.2535,"MEAN_ANOMALY":264.8916,"EPHEMERIS_TYPE":0,"CLASSIFICATION_TYPE":"U","NORAD_CAT_ID":55148,"ELEMENT_SET_NO":999,"REV_AT_EPOCH":14103,"BSTAR":-0.001376217,"MEAN_MOTION_DOT":-4.9e-6,"MEAN_MOTION_DDOT":0},{"OBJECT_NAME":"ONEWEB-0570","OBJECT_ID":"2023-004K","EPOCH":"2025-11-07T06:21:05.463648","MEAN_MOTION":13.186873,"ECCENTRICITY":0.0001642,"INCLINATION":87.9214,"RA_OF_ASC_NODE":19.5655,"ARG_OF_PERICENTER":82.906,"MEAN_ANOMALY":277.2259,"EPHEMERIS_TYPE":0,"CLASSIFICATION_TYPE":"U","NORAD_CAT_ID":55149,"ELEMENT_SET_NO":999,"REV_AT_EPOCH":14044,"BSTAR":-1.9878252e-5,"MEAN_MOTION_DOT":5.0e-8,"MEAN_MOTION_DDOT":0},{"OBJECT_NAME":"ONEWEB-0571","OBJECT_ID":"2023-004L","EPOCH":"2025-11-07T06:11:35.140704","MEAN_MOTION":13.18684561,"ECCENTRICITY":0.00028603,"INCLINATION":87.9207,"RA_OF_ASC_NODE":19.5685,"ARG_OF_PERICENTER":82.1118,"MEAN_ANOMALY":278.0338,"EPHEMERIS_TYPE":0,"CLASSIFICATION_TYPE":"U","NORAD_CAT_ID":55150,"ELEMENT_SET_NO":999,"REV_AT_EPOCH":14045,"BSTAR":5.5078419e-5,"MEAN_MOTION_DOT":3.5e-7,"MEAN_MOTION_DDOT":0},{"OBJECT_NAME":"ONEWEB-0572","OBJECT_ID":"2023-004M","EPOCH":"2025-11-07T06:06:00.371808","MEAN_MOTION":13.17650046,"ECCENTRICITY":0.00017914,"INCLINATION":87.9137,"RA_OF_ASC_NODE":49.9982,"ARG_OF_PERICENTER":94.8695,"MEAN_ANOMALY":265.2641,"EPHEMERIS_TYPE":0,"CLASSIFICATION_TYPE":"U","NORAD_CAT_ID":55151,"ELEMENT_SET_NO":999,"REV_AT_EPOCH":13825,"BSTAR":9.1196445e-5,"MEAN_MOTION_DOT":4.8e-7,"MEAN_MOTION_DDOT":0},{"OBJECT_NAME":"ONEWEB-0573","OBJECT_ID":"2023-004N","EPOCH":"2025-11-07T06:02:05.522784","MEAN_MOTION":13.18686714,"ECCENTRICITY":0.00021886,"INCLINATION":87.9205,"RA_OF_ASC_NODE":19.5766,"ARG_OF_PERICENTER":77.3859,"MEAN_ANOMALY":282.7518,"EPHEMERIS_TYPE":0,"CLASSIFICATION_TYPE":"U","NORAD_CAT_ID":55152,"ELEMENT_SET_NO":999,"REV_AT_EPOCH":14044,"BSTAR":-4.7776909e-5,"MEAN_MOTION_DOT":-6.0e-8,"MEAN_MOTION_DDOT":0},{"OBJECT_NAME":"ONEWEB-0588","OBJECT_ID":"2023-004P","EPOCH":"2025-11-07T05:52:35.368320","MEAN_MOTION":13.18686795,"ECCENTRICITY":0.00017712,"INCLINATION":87.9215,"RA_OF_ASC_NODE":19.5685,"ARG_OF_PERICENTER":84.5152,"MEAN_ANOMALY":275.6182,"EPHEMERIS_TYPE":0,"CLASSIFICATION_TYPE":"U","NORAD_CAT_ID":55153,"ELEMENT_SET_NO":999,"REV_AT_EPOCH":14044,"BSTAR":8.0366407e-5,"MEAN_MOTION_DOT":4.5e-7,"MEAN_MOTION_DDOT":0},{"OBJECT_NAME":"ONEWEB-0598","OBJECT_ID":"2023-004Q","EPOCH":"2025-11-07T06:56:31.083360","MEAN_MOTION":13.11418812,"ECCENTRICITY":0.00022252,"INCLINATION":87.8849,"RA_OF_ASC_NODE":65.2653,"ARG_OF_PERICENTER":94.7726,"MEAN_ANOMALY":265.3656,"EPHEMERIS_TYPE":0,"CLASSIFICATION_TYPE":"U","NORAD_CAT_ID":55154,"ELEMENT_SET_NO":999,"REV_AT_EPOCH":13681,"BSTAR":-0.00014726229,"MEAN_MOTION_DOT":-3.9e-7,"MEAN_MOTION_DDOT":0},{"OBJECT_NAME":"ONEWEB-0599","OBJECT_ID":"2023-004R","EPOCH":"2025-11-07T06:59:26.946240","MEAN_MOTION":13.17651132,"ECCENTRICITY":0.00018787,"INCLINATION":87.9138,"RA_OF_ASC_NODE":49.9937,"ARG_OF_PERICENTER":102.9592,"MEAN_ANOMALY":257.175,"EPHEMERIS_TYPE":0,"CLASSIFICATION_TYPE":"U","NORAD_CAT_ID":55155,"ELEMENT_SET_NO":999,"REV_AT_EPOCH":13826,"BSTAR":7.2512161e-5,"MEAN_MOTION_DOT":4.1e-7,"MEAN_MOTION_DDOT":0},{"OBJECT_NAME":"ONEWEB-0614","OBJECT_ID":"2023-004S","EPOCH":"2025-11-07T06:49:11.094816","MEAN_MOTION":13.11420369,"ECCENTRICITY":0.00012846,"INCLINATION":87.8851,"RA_OF_ASC_NODE":65.2757,"ARG_OF_PERICENTER":94.5791,"MEAN_ANOMALY":265.5484,"EPHEMERIS_TYPE":0,"CLASSIFICATION_TYPE":"U","NORAD_CAT_ID":55156,"ELEMENT_SET_NO":999,"REV_AT_EPOCH":13675,"BSTAR":-0.00083182104,"MEAN_MOTION_DOT":-2.82e-6,"MEAN_MOTION_DDOT":0}]
